[{"OBJECT_NAME":"ONEWEB-0007","OBJECT_ID":"2019-010D","EPOCH":"2026-03-09T15:04:07.974912","MEAN_MOTION":13.15546142,"ECCENTRICITY":0.0001539,"INCLINATION":87.8938,"RA_OF_ASC_NODE":279.1029,"ARG_OF_PERICENTER":100.661,"MEAN_ANOMALY":259.4694,"EPHEMERIS_TYPE":0,"CLASSIFICATION_TYPE":"U","NORAD_CAT_ID":44060,"ELEMENT_SET_NO":999,"REV_AT_EPOCH":33828,"BSTAR":-7.1193e-5,"MEAN_MOTION_DOT":-1.4e-7,"MEAN_MOTION_DDOT":0},{"OBJECT_NAME":"FENGYUN 1C DEB","OBJECT_ID":"1999-025AQN","EPOCH":"2026-03-09T01:59:11.109408","MEAN_MOTION":13.56929929,"ECCENTRICITY":0.03231434,"INCLINATION":99.6321,"RA_OF_ASC_NODE":113.9602,"ARG_OF_PERICENTER":309.2025,"MEAN_ANOMALY":48.0823,"EPHEMERIS_TYPE":0,"CLASSIFICATION_TYPE":"U","NORAD_CAT_ID":30680,"ELEMENT_SET_NO":999,"REV_AT_EPOCH":93424,"BSTAR":0.0049899329,"MEAN_MOTION_DOT":4.927e-5,"MEAN_MOTION_DDOT":0}]
